#cP2020 11  8  0  0  0.00000000      96   u+U IGb14 FIT  GFZ                    
## 2131      0.00000000   900.00000000 59161 0.0000000000000                    
+   52   G01G02G03G04G05G06G07G08G09G10G11G12G13G15G16G17G18                    
+        G19G20G21G22G23G24G25G26G27G28G29G30G31G32R01R02R03                    
+        R05R07R08R09R11R12R13R14R15R16R17R18R19R20R21R22R23                    
+        R24 00 00 00 00 00 00 00 00 00 00 00 00 00 00 00 00                    
+         00 00 00 00 00 00 00 00 00 00 00 00 00 00 00 00 00                    
++         8  6  6  5  7  5  7  5  5  6  5  8  5  6  7  6  6                    
++         7  7  6  6  5  5  7  6  6  6  6  6  6  5  9  7  5                    
++         6  7  7  8  8  7  9  5  7 10  6 10 10  9  6 10  8                    
++         5  0  0  0  0  0  0  0  0  0  0  0  0  0  0  0  0                    
++         0  0  0  0  0  0  0  0  0  0  0  0  0  0  0  0  0                    
%c M  cc GPS ccc cccc cccc cccc cccc ccccc ccccc ccccc ccccc                    
%c cc cc ccc ccc cccc cccc cccc cccc ccccc ccccc ccccc ccccc                    
%f  1.2500000  1.025000000  0.00000000000  0.000000000000000                    
%f  0.0000000  0.000000000  0.00000000000  0.000000000000000                    
%i    0    0    0    0      0      0      0      0         0                    
%i    0    0    0    0      0      0      0      0         0                    
/* PCV:IGS14_2132 OL/AL:FES2004  NONE     YN CLK:CoN ORB:CoN                    
/*     GeoForschungsZentrum Potsdam                                             
/*                                                                              
/*                                                                              
*  2020 11  8 15 30  0.00000000                                                 
PG01 -13527.065013  21871.779578  -6137.957650    809.429878                    
PG02  19688.558895 -11578.177844 -12889.748222   -539.994848                    
PG03  -7389.035632  13757.761758 -21555.107335   -348.134457                    
PG04  -2892.330615  22535.621471 -13716.662897   -153.378415                    
PG05  24543.229384  -3297.282464   9698.874657    -25.385795                    
PG06  15315.914048   3946.247668 -21286.555942     -0.122771                    
PG07    612.085651  19248.013813  18404.499496   -410.201531                    
PG08  -9040.178307  14945.710298  19939.670092    -54.376702                    
PG09   7121.337365  25392.980314  -3130.354287   -286.944758                    
PG10 -21134.004655 -11779.533174  11342.978044   -499.735377                    
PG11 -11537.911116  22620.158863   7921.923929   -114.304057                    
PG12  10801.370695 -12063.206063 -21258.304368     43.098047                    
PG13  14081.282944  -5531.794180  21689.824235     62.852409                    
PG15   7511.671836 -16696.522540  18769.209537   -191.395479                    
PG16 -24463.130385    664.590249  10648.594668   -233.640683                    
PG17  14354.053266  17636.688208 -13313.329997    351.168328                    
PG18  -1245.404498 -18408.303550  19077.274762    318.688139                    
PG19  15528.464146  11496.468751 -18542.438492    -80.998088                    
PG20 -10953.903597 -14672.301670  19251.309332    526.104042                    
PG21 -18601.275503  17925.195775   6122.575478     66.173176                    
PG22 -15612.188896  11788.019591 -17701.570877   -732.762984                    
PG23 -11964.982623 -14899.866685  18425.756021     97.705327                    
PG24  14544.941050 -21901.894603  -1928.851896      6.709062                    
PG25  -3510.127808 -15752.906742 -21379.233191     18.698274                    
PG26 -26208.198021  -4869.778385  -1489.579394    308.506651                    
PG27 -14813.298891   2257.950237  21806.285061     -9.131731                    
PG28  20695.659890  13218.323552  10475.493589    657.987927                    
PG29  -3588.168775 -25784.788409  -5177.822479   -232.330951                    
PG30   9336.331643  12928.732143  21269.022960   -332.016961                    
PG31 -17347.571179  -1973.283791 -20202.602730    -80.151418                    
PG32 -15911.105894 -16828.384325 -13057.237869    365.562491                    
PR01  17975.425927  17712.838244  -3766.848882     70.299941                    
PR02  18457.336299   6042.330042  16533.628277    453.516398                    
PR03   7188.899848  -8309.011117  23053.439975     25.212492                    
PR05 -18795.131086 -17249.658921    754.603623     60.743854                    
PR07  -6740.016578   8666.314627 -22996.122465    -41.218464                    
PR08   8082.231331  17674.348299 -16464.612915    -55.597332                    
PR09 -24201.683945   5227.871596  -5966.890735      6.649180                    
PR11  -2016.964579  12167.589437  22340.605989    -43.974587                    
PR12  14909.659786   5041.184758  20097.206268    178.500845                    
PR13  24145.892682  -5234.318214   6332.696824    -46.322361                    
PR14  19172.012890 -12299.317267 -11477.989618     57.509389                    
PR15   3144.326067 -12187.258955 -22161.091763    106.819375                    
PR16 -15849.823560  -4358.338483 -19568.726794     -8.006489                    
PR17   9922.722740 -19938.805146 -12380.173736    372.342691                    
PR18   3345.482781 -24941.230864   4328.610456     55.481005                    
PR19  -4280.585912 -17192.932479  18347.597857   -118.864720                    
PR20 -11091.384373   2780.122222  22807.859311   -426.098018                    
PR21  -9661.490932  20664.362207  11456.861249   -164.725600                    
PR22  -2879.700740  24692.672517  -5524.458930    -80.859824                    
PR23   7810.654169  10314.343560 -21989.506971    343.565351                    
PR24  11604.553949  -3599.572808 -22405.142726     19.809168                    
EOF                                     
